{
  "type": "FeatureCollection",
  "features": [
    {
      "type": "Feature",
      "properties": {
        "id": "L1",
        "kind": "spine"
      },
      "geometry": {
        "type": "LineString",
        "coordinates": [
          [
            -121.888,
            37.335
          ],
          [
            -121.88798333768598,
            37.33501324825846
          ],
          [
            -121.88796667537194,
            37.33502649651692
          ],
          [
            -121.88795001305792,
            37.33503974477538
          ],
          [
            -121.88793335074388,
            37.335052993033834
          ],
          [
            -121.88791668842985,
            37.335066241292296
          ],
          [
            -121.88790002611583,
            37.33507948955075
          ],
          [
            -121.88788336380179,
            37.33509273780921
          ],
          [
            -121.88786670148777,
            37.335105986067674
          ],
          [
            -121.88785003917373,
            37.33511923432613
          ],
          [
            -121.8878333768597,
            37.33513248258459
          ],
          [
            -121.88781671454566,
            37.335145730843045
          ],
          [
            -121.88780005223164,
            37.33515897910151
          ]
        ]
      }
    },
    {
      "type": "Feature",
      "properties": {
        "id": "L2",
        "kind": "spine"
      },
      "geometry": {
        "type": "LineString",
        "coordinates": [
          [
            -121.88768008331671,
            37.335063591640605
          ]
        ]
      }
    },
    {
      "type": "Feature",
      "properties": {
        "id": "A1",
        "kind": "spine"
      },
      "geometry": {
        "type": "LineString",
        "coordinates": [
          [
            -121.888,
            37.335
          ],
          [
            -121.88797770084969,
            37.334996140029396
          ],
          [
            -121.88795503325527,
            37.3349940520279
          ],
          [
            -121.88793221729297,
            37.334993756089915
          ],
          [
            -121.88790947445217,
            37.334995255205996
          ],
          [
            -121.8878870450356,
            37.334998602608955
          ],
          [
            -121.8878651493656,
            37.33500371290044
          ],
          [
            -121.88784399695685,
            37.33501051912303
          ],
          [
            -121.8878237931799,
            37.33501895525802
          ],
          [
            -121.88780477272462,
            37.33502898165738
          ],
          [
            -121.88778712041989,
            37.33504048024768
          ],
          [
            -121.88777098506876,
            37.335053309516276
          ],
          [
            -121.88775652330965,
            37.335067344919466
          ],
          [
            -121.88774391312279,
            37.33508246814347
          ],
          [
            -121.88773330300894,
            37.33509853223027
          ],
          [
            -121.8877247428334,
            37.3351153505772
          ],
          [
            -121.88771831562777,
            37.33513275989351
          ],
          [
            -121.88771410560427,
            37.33515059359339
          ],
          [
            -121.88771222016831,
            37.33516867649788
          ],
          [
            -121.88771259236906,
            37.33518681754148
          ],
          [
            -121.88771521844528,
            37.33520484061734
          ],
          [
            -121.8877200731243,
            37.335222570742104
          ]
        ]
      }
    },
    {
      "type": "Feature",
      "properties": {
        "id": "A2",
        "kind": "spine"
      },
      "geometry": {
        "type": "LineString",
        "coordinates": [
          [
            -121.88800287112078,
            37.33500228283719
          ],
          [
            -121.88798597039198,
            37.33501535927015
          ],
          [
            -121.88796865431758,
            37.33502808739796
          ],
          [
            -121.8879509304207,
            37.33504045564168
          ],
          [
            -121.88793279271114,
            37.335052438625176
          ],
          [
            -121.88791427523874,
            37.335064048510446
          ],
          [
            -121.88789538335112,
            37.33507527063048
          ],
          [
            -121.88787612024866,
            37.33508608644681
          ],
          [
            -121.88785651529884,
            37.33509650666361
          ],
          [
            -121.88783657234451,
            37.33510651320774
          ],
          [
            -121.8878163023598,
            37.335116095319336
          ],
          [
            -121.88779573054296,
            37.33512526176011
          ],
          [
            -121.88777485994993,
            37.33513399079818
          ],
          [
            -121.88775370778737,
            37.33514228025694
          ],
          [
            -121.88773229566195,
            37.335150136526835
          ],
          [
            -121.88771062659845,
            37.33515753403394
          ],
          [
            -121.88768872238913,
            37.33516447984376
          ],
          [
            -121.88766660168308,
            37.33517097760756
          ],
          [
            -121.8876442682584,
            37.335176997798285
          ],
          [
            -121.88762174675965,
            37.335182557228784
          ],
          [
            -121.88759905356014,
            37.33518765650821
          ]
        ]
      }
    },
    {
      "type": "Feature",
      "properties": {
        "id": "S1",
        "kind": "spine"
      },
      "geometry": {
        "type": "LineString",
        "coordinates": [
          [
            -121.88700025914385,
            37.33547693730451
          ],
          [
            -121.88697713278918,
            37.33548174534671
          ],
          [
            -121.886953639235,
            37.335485303756336
          ],
          [
            -121.88693020485721,
            37.335489092746485
          ],
          [
            -121.88690736539746,
            37.335494674422925
          ],
          [
            -121.8868866534982,
            37.33550404473822
          ],
          [
            -121.88687131137605,
            37.335518487876726
          ],
          [
            -121.88686188437195,
            37.33553592108088
          ],
          [
            -121.8868562095156,
            37.335554382578685
          ],
          [
            -121.88685268412127,
            37.33557318759291
          ],
          [
            -121.88685030987735,
            37.33559210901239
          ],
          [
            -121.88684843939339,
            37.33561106701991
          ],
          [
            -121.8868465341843,
            37.335630022791456
          ],
          [
            -121.8868440448416,
            37.33564893463404
          ],
          [
            -121.88684029991352,
            37.33566771222632
          ]
        ]
      }
    }
  ]
}